sat05507
1 05507U 70025LL  20046.95160090  .00000521  00000-0  29338-3 0  9999
2 05507  99.2487 304.4622 0031398 167.7257 192.4687 14.14835583523265
